[{"OBJECT_NAME":"STARLINK-32138","OBJECT_ID":"2024-131A","EPOCH":"2026-03-09T22:19:45.668352","MEAN_MOTION":15.30193265,"ECCENTRICITY":0.00018239,"INCLINATION":53.1613,"RA_OF_ASC_NODE":51.4432,"ARG_OF_PERICENTER":104.4371,"MEAN_ANOMALY":255.6832,"EPHEMERIS_TYPE":0,"CLASSIFICATION_TYPE":"U","NORAD_CAT_ID":60255,"ELEMENT_SET_NO":999,"REV_AT_EPOCH":9205,"BSTAR":-5.5456119e-5,"MEAN_MOTION_DOT":-2.001e-5,"MEAN_MOTION_DDOT":0},{"OBJECT_NAME":"TEVEL2-7","OBJECT_ID":"2025-052AE","EPOCH":"2026-03-09T15:52:01.887744","MEAN_MOTION":15.28414096,"ECCENTRICITY":0.00081048,"INCLINATION":97.4054,"RA_OF_ASC_NODE":324.3041,"ARG_OF_PERICENTER":124.683,"MEAN_ANOMALY":235.5175,"EPHEMERIS_TYPE":0,"CLASSIFICATION_TYPE":"U","NORAD_CAT_ID":63238,"ELEMENT_SET_NO":999,"REV_AT_EPOCH":5480,"BSTAR":0.00069668191,"MEAN_MOTION_DOT":0.00019244,"MEAN_MOTION_DDOT":0}]
